{"type": "FeatureCollection", "features": [ {"type": "Feature", "properties": {"norad_id": 45344, "name": "BEIDOU-3 G2 (C60)", "group": "gnss", "lat": -0.8416414413675535, "lon": -117.0021294080562, "alt_km": 35778.4406826136, "timestamp": "2025-12-19T04:59:48.549231+00:00", "meta": {"OBJECT_NAME": "BEIDOU-3 G2 (C60)", "OBJECT_ID": "2020-017A", "EPOCH": "2025-12-18T20:31:28.077312", "MEAN_MOTION": 1.00273241, "ECCENTRICITY": 0.00020819, "INCLINATION": 2.5082, "RA_OF_ASC_NODE": 43.994, "ARG_OF_PERICENTER": 232.5941, "MEAN_ANOMALY": 199.013, "EPHEMERIS_TYPE": 0, "CLASSIFICATION_TYPE": "U", "NORAD_CAT_ID": 45344, "ELEMENT_SET_NO": 999, "REV_AT_EPOCH": 2145, "BSTAR": 0, "MEAN_MOTION_DOT": -1.18e-06, "MEAN_MOTION_DDOT": 0}, "tle": {"line1": "1 45344U 20017A   25352.85518608 -.00000118  00000+0  00000+0 0  9997", "line2": "2 45344   2.5082  43.9940 0002081 232.5941 199.0130  1.00273241 21450"}}, "geometry": {"type": "Point", "coordinates": [-117.0021294080562, -0.8416414413675535]}}, {"type": "Feature", "properties": {"norad_id": 45358, "name": "COSMOS 2545 (760)", "group": "gnss", "lat": 37.5245020211743, "lon": 117.19642439661116, "alt_km": 19136.614119194797, "timestamp": "2025-12-19T04:59:48.549242+00:00", "meta": {"OBJECT_NAME": "COSMOS 2545 (760)", "OBJECT_ID": "2020-018A", "EPOCH": "2025-12-18T13:25:32.377728", "MEAN_MOTION": 2.13102609, "ECCENTRICITY": 0.00115817, "INCLINATION": 64.4659, "RA_OF_ASC_NODE": 318.7651, "ARG_OF_PERICENTER": 249.5623, "MEAN_ANOMALY": 110.3045, "EPHEMERIS_TYPE": 0, "CLASSIFICATION_TYPE": "U", "NORAD_CAT_ID": 45358, "ELEMENT_SET_NO": 999, "REV_AT_EPOCH": 4481, "BSTAR": 0, "MEAN_MOTION_DOT": -6.4e-07, "MEAN_MOTION_DDOT": 0}, "tle": {"line1": "1 45358U 20018A   25352.55940252 -.00000064  00000+0  00000+0 0  9994", "line2": "2 45358  64.4659 318.7651 0011581 249.5623 110.3045  2.13102609 44814"}}, "geometry": {"type": "Point", "coordinates": [117.19642439661116, 37.5245020211743]}}, {"type": "Feature", "properties": {"norad_id": 45807, "name": "BEIDOU-3 G3 (C61)", "group": "gnss", "lat": -0.9333579579601267, "lon": -86.50087332509229, "alt_km": 35792.31838530233, "timestamp": "2025-12-19T04:59:48.549254+00:00", "meta": {"OBJECT_NAME": "BEIDOU-3 G3 (C61)", "OBJECT_ID": "2020-040A", "EPOCH": "2025-12-18T22:22:54.904224", "MEAN_MOTION": 1.00271264, "ECCENTRICITY": 0.00064278, "INCLINATION": 2.0056, "RA_OF_ASC_NODE": 66.6354, "ARG_OF_PERICENTER": 309.3696, "MEAN_ANOMALY": 158.0932, "EPHEMERIS_TYPE": 0, "CLASSIFICATION_TYPE": "U", "NORAD_CAT_ID": 45807, "ELEMENT_SET_NO": 999, "REV_AT_EPOCH": 2026, "BSTAR": 0, "MEAN_MOTION_DOT": -3.31e-06, "MEAN_MOTION_DDOT": 0}, "tle": {"line1": "1 45807U 20040A   25352.93257991 -.00000331  00000+0  00000+0 0  9998", "line2": "2 45807   2.0056  66.6354 0006427 309.3696 158.0932  1.00271264 20265"}}, "geometry": {"type": "Point", "coordinates": [-86.50087332509229, -0.9333579579601267]}}, {"type": "Feature", "properties": {"norad_id": 45854, "name": "GPS BIII-3  (PRN 23)", "group": "gnss", "lat": -20.321159525843683, "lon": 21.794468474381198, "alt_km": 20291.769539518555, "timestamp": "2025-12-19T04:59:48.549312+00:00", "meta": {"OBJECT_NAME": "GPS BIII-3  (PRN 23)", "OBJECT_ID": "2020-041A", "EPOCH": "2025-12-18T05:27:58.178880", "MEAN_MOTION": 2.00562003, "ECCENTRICITY": 0.0060605, "INCLINATION": 56.5506, "RA_OF_ASC_NODE": 35.9719, "ARG_OF_PERICENTER": 203.6022, "MEAN_ANOMALY": 143.4254, "EPHEMERIS_TYPE": 0, "CLASSIFICATION_TYPE": "U", "NORAD_CAT_ID": 45854, "ELEMENT_SET_NO": 999, "REV_AT_EPOCH": 4040, "BSTAR": 0, "MEAN_MOTION_DOT": -7e-07, "MEAN_MOTION_DDOT": 0}, "tle": {"line1": "1 45854U 20041A   25352.22775670 -.00000070  00000+0  00000+0 0  9992", "line2": "2 45854  56.5506  35.9719 0060605 203.6022 143.4254  2.00562003 40400"}}, "geometry": {"type": "Point", "coordinates": [21.794468474381198, -20.321159525843683]}}, {"type": "Feature", "properties": {"norad_id": 46114, "name": "GALAXY 30 (WAAS/PRN 135)", "group": "gnss", "lat": 0.036443815878450754, "lon": 38.01836647087508, "alt_km": 35791.064573474876, "timestamp": "2025-12-19T04:59:48.549329+00:00", "meta": {"OBJECT_NAME": "GALAXY 30 (WAAS/PRN 135)", "OBJECT_ID": "2020-056C", "EPOCH": "2025-12-18T22:58:21.508896", "MEAN_MOTION": 1.00272074, "ECCENTRICITY": 0.00020303, "INCLINATION": 0.0278, "RA_OF_ASC_NODE": 359.9556, "ARG_OF_PERICENTER": 271.9117, "MEAN_ANOMALY": 35.5331, "EPHEMERIS_TYPE": 0, "CLASSIFICATION_TYPE": "U", "NORAD_CAT_ID": 46114, "ELEMENT_SET_NO": 999, "REV_AT_EPOCH": 1948, "BSTAR": 0, "MEAN_MOTION_DOT": 0, "MEAN_MOTION_DDOT": 0}, "tle": {"line1": "1 46114U 20056C   25352.95719339  .00000000  00000+0  00000+0 0  9990", "line2": "2 46114   0.0278 359.9556 0002030 271.9117  35.5331  1.00272074 19485"}}, "geometry": {"type": "Point", "coordinates": [38.01836647087508, 0.036443815878450754]}}, {"type": "Feature", "properties": {"norad_id": 46805, "name": "COSMOS 2547 (705K)", "group": "gnss", "lat": -5.968663771405788, "lon": -164.3643428329415, "alt_km": 19140.393039235143, "timestamp": "2025-12-19T04:59:48.549341+00:00", "meta": {"OBJECT_NAME": "COSMOS 2547 (705K)", "OBJECT_ID": "2020-075A", "EPOCH": "2025-12-17T08:09:16.456320", "MEAN_MOTION": 2.1310013, "ECCENTRICITY": 0.0006169, "INCLINATION": 64.5962, "RA_OF_ASC_NODE": 198.5429, "ARG_OF_PERICENTER": 228.3795, "MEAN_ANOMALY": 131.6499, "EPHEMERIS_TYPE": 0, "CLASSIFICATION_TYPE": "U", "NORAD_CAT_ID": 46805, "ELEMENT_SET_NO": 999, "REV_AT_EPOCH": 4003, "BSTAR": 0, "MEAN_MOTION_DOT": 1.12e-06, "MEAN_MOTION_DDOT": 0}, "tle": {"line1": "1 46805U 20075A   25351.33977380  .00000112  00000+0  00000+0 0  9995", "line2": "2 46805  64.5962 198.5429 0006169 228.3795 131.6499  2.13100130 40034"}}, "geometry": {"type": "Point", "coordinates": [-164.3643428329415, -5.968663771405788]}}, {"type": "Feature", "properties": {"norad_id": 46826, "name": "GPS BIII-4  (PRN 14)", "group": "gnss", "lat": -40.41801754647042, "lon": 179.8784531407243, "alt_km": 20225.039435744566, "timestamp": "2025-12-19T04:59:48.549353+00:00", "meta": {"OBJECT_NAME": "GPS BIII-4  (PRN 14)", "OBJECT_ID": "2020-078A", "EPOCH": "2025-12-16T01:06:13.902336", "MEAN_MOTION": 2.00566891, "ECCENTRICITY": 0.00647554, "INCLINATION": 54.0145, "RA_OF_ASC_NODE": 218.2068, "ARG_OF_PERICENTER": 203.3828, "MEAN_ANOMALY": 339.3936, "EPHEMERIS_TYPE": 0, "CLASSIFICATION_TYPE": "U", "NORAD_CAT_ID": 46826, "ELEMENT_SET_NO": 999, "REV_AT_EPOCH": 3783, "BSTAR": 0, "MEAN_MOTION_DOT": 6.7e-07, "MEAN_MOTION_DDOT": 0}, "tle": {"line1": "1 46826U 20078A   25350.04599424  .00000067  00000+0  00000+0 0  9996", "line2": "2 46826  54.0145 218.2068 0064755 203.3828 339.3936  2.00566891 37831"}}, "geometry": {"type": "Point", "coordinates": [179.8784531407243, -40.41801754647042]}}, {"type": "Feature", "properties": {"norad_id": 48859, "name": "GPS BIII-5  (PRN 11)", "group": "gnss", "lat": 38.418334421986984, "lon": 126.28620569368205, "alt_km": 20192.958179238216, "timestamp": "2025-12-19T04:59:48.549365+00:00", "meta": {"OBJECT_NAME": "GPS BIII-5  (PRN 11)", "OBJECT_ID": "2021-054A", "EPOCH": "2025-12-08T04:14:32.423424", "MEAN_MOTION": 2.00553627, "ECCENTRICITY": 0.0024678, "INCLINATION": 55.2581, "RA_OF_ASC_NODE": 340.1367, "ARG_OF_PERICENTER": 233.3994, "MEAN_ANOMALY": 212.8593, "EPHEMERIS_TYPE": 0, "CLASSIFICATION_TYPE": "U", "NORAD_CAT_ID": 48859, "ELEMENT_SET_NO": 999, "REV_AT_EPOCH": 3292, "BSTAR": 0, "MEAN_MOTION_DOT": -8.6e-07, "MEAN_MOTION_DDOT": 0}, "tle": {"line1": "1 48859U 21054A   25342.17676416 -.00000086  00000+0  00000+0 0  9993", "line2": "2 48859  55.2581 340.1367 0024678 233.3994 212.8593  2.00553627 32922"}}, "geometry": {"type": "Point", "coordinates": [126.28620569368205, 38.418334421986984]}}, {"type": "Feature", "properties": {"norad_id": 49336, "name": "QZS-1R (QZSS/PRN 196)", "group": "gnss", "lat": -16.26278625356103, "lon": -75.08285701461283, "alt_km": 34200.09737110916, "timestamp": "2025-12-19T04:59:48.549377+00:00", "meta": {"OBJECT_NAME": "QZS-1R (QZSS/PRN 196)", "OBJECT_ID": "2021-096A", "EPOCH": "2025-12-18T14:04:25.772160", "MEAN_MOTION": 1.00255833, "ECCENTRICITY": 0.07566602, "INCLINATION": 37.0895, "RA_OF_ASC_NODE": 82.273, "ARG_OF_PERICENTER": 271.433, "MEAN_ANOMALY": 79.2664, "EPHEMERIS_TYPE": 0, "CLASSIFICATION_TYPE": "U", "NORAD_CAT_ID": 49336, "ELEMENT_SET_NO": 999, "REV_AT_EPOCH": 1519, "BSTAR": 0, "MEAN_MOTION_DOT": -2.72e-06, "MEAN_MOTION_DDOT": 0}, "tle": {"line1": "1 49336U 21096A   25352.58640940 -.00000272  00000+0  00000+0 0  9996", "line2": "2 49336  37.0895  82.2730 0756660 271.4330  79.2664  1.00255833 15198"}}, "geometry": {"type": "Point", "coordinates": [-75.08285701461283, -16.26278625356103]}}, {"type": "Feature", "properties": {"norad_id": 49809, "name": "GSAT0223 (GALILEO 27)", "group": "gnss", "lat": -2.4014680475369548, "lon": 168.08036281440027, "alt_km": 23218.389812096135, "timestamp": "2025-12-19T04:59:48.549389+00:00", "meta": {"OBJECT_NAME": "GSAT0223 (GALILEO 27)", "OBJECT_ID": "2021-116A", "EPOCH": "2025-12-16T20:22:21.643104", "MEAN_MOTION": 1.70476101, "ECCENTRICITY": 0.00044272, "INCLINATION": 57.2185, "RA_OF_ASC_NODE": 346.6017, "ARG_OF_PERICENTER": 254.1798, "MEAN_ANOMALY": 280.7094, "EPHEMERIS_TYPE": 0, "CLASSIFICATION_TYPE": "U", "NORAD_CAT_ID": 49809, "ELEMENT_SET_NO": 999, "REV_AT_EPOCH": 2507, "BSTAR": 0, "MEAN_MOTION_DOT": -7.9e-07, "MEAN_MOTION_DDOT": 0}, "tle": {"line1": "1 49809U 21116A   25350.84886161 -.00000079  00000+0  00000+0 0  9993", "line2": "2 49809  57.2185 346.6017 0004427 254.1798 280.7094  1.70476101 25071"}}, "geometry": {"type": "Point", "coordinates": [168.08036281440027, -2.4014680475369548]}}]}